NORAD_CAT_ID,OBJECT_NAME,OBJECT_TYPE,EPOCH,MEAN_MOTION,ECCENTRICITY,INCLINATION,RA_OF_ASC_NODE,ARG_OF_PERICENTER,MEAN_ANOMALY,BSTAR,MEAN_MOTION_DOT,MEAN_MOTION_DDOT,TLE_LINE0,TLE_LINE1,TLE_LINE2,SEMIMAJOR_AXIS,PERIOD,APOGEE,PERIGEE,DECAYED
53926.0,STARLINK-5014,PAYLOAD,2024-08-17 17:23:08,15.0884769,8.35e-05,53.2192,343.0909,81.7458,278.3629,0.00030371,4.55e-05,0.0,0 STARLINK-5014,1 53926U 22119AS  24230.72440320  .00004550  00000-0  30371-3 0  9994,2 53926  53.2192 343.0909 0000835  81.7458 278.3629 15.08847690105580,6917.857,95.437,540.3,539.144,0.0
53926.0,STARLINK-5014,PAYLOAD,2024-08-18 14:03:09,15.0884318,0.0001963,53.2192,339.2214,73.0502,287.0706,0.0014243,0.00022455,0.0,0 STARLINK-5014,1 53926U 22119AS  24231.58552890  .00022455  00000-0  14243-2 0  9998,2 53926  53.2192 339.2214 0001963  73.0502 287.0706 15.08843180105711,6917.871,95.437,541.094,538.378,0.0
53926.0,STARLINK-5014,PAYLOAD,2024-08-19 10:43:10,15.08834732,0.0001522,53.2182,335.3569,104.2416,255.8745,-1.4234e-05,-5.14e-06,0.0,0 STARLINK-5014,1 53926U 22119AS  24232.44664756 -.00000514  00000-0 -14234-4 0  9995,2 53926  53.2182 335.3569 0001522 104.2416 255.8745 15.08834732105845,6917.896,95.438,540.814,538.709,0.0
53926.0,STARLINK-5014,PAYLOAD,2024-08-19 13:53:56,15.08836497,0.0001507,53.2177,334.763,102.3717,257.7444,7.3257e-05,8.78e-06,0.0,0 STARLINK-5014,1 53926U 22119AS  24232.57912768  .00000878  00000-0  73257-4 0  9999,2 53926  53.2177 334.7630 0001507 102.3717 257.7444 15.08836497106294,6917.891,95.438,540.799,538.714,0.0
53926.0,STARLINK-5014,PAYLOAD,2024-08-20 12:09:20,15.08847854,0.0001524,53.2177,330.6021,107.0742,253.0417,0.00050708,7.793e-05,0.0,0 STARLINK-5014,1 53926U 22119AS  24233.50648790  .00007793  00000-0  50708-3 0  9992,2 53926  53.2177 330.6021 0001524 107.0742 253.0417 15.08847854106009,6917.856,95.437,540.776,538.667,0.0
53926.0,STARLINK-5014,PAYLOAD,2024-08-20 13:44:43,15.08851094,0.0001566,53.2182,330.3055,108.7358,251.3804,0.0005834,9.012e-05,0.0,0 STARLINK-5014,1 53926U 22119AS  24233.57272701  .00009012  00000-0  58340-3 0  9990,2 53926  53.2182 330.3055 0001566 108.7358 251.3804 15.08851094106446,6917.846,95.437,540.795,538.628,0.0
53926.0,STARLINK-5014,PAYLOAD,2024-08-21 12:00:08,15.08839507,0.0001648,53.2183,326.1449,115.9727,244.1435,0.00019282,2.782e-05,0.0,0 STARLINK-5014,1 53926U 22119AS  24234.50009307  .00002782  00000-0  19282-3 0  9993,2 53926  53.2183 326.1449 0001648 115.9727 244.1435 15.08839507106151,6917.882,95.438,540.887,538.607,0.0
53926.0,STARLINK-5014,PAYLOAD,2024-08-21 13:35:31,15.0884031,0.0001386,53.2169,325.8456,115.5408,244.5728,0.00023775,3.498e-05,0.0,0 STARLINK-5014,1 53926U 22119AS  24234.56633272  .00003498  00000-0  23775-3 0  9990,2 53926  53.2169 325.8456 0001386 115.5408 244.5728 15.08840310106591,6917.879,95.438,540.703,538.786,0.0
53926.0,STARLINK-5014,PAYLOAD,2024-08-21 15:10:54,15.08835538,0.0001292,53.2168,325.5459,90.6615,269.4526,0.00025194,3.724e-05,0.0,0 STARLINK-5014,1 53926U 22119AS  24234.63257467  .00003724  00000-0  25194-3 0  9995,2 53926  53.2168 325.5459 0001292  90.6615 269.4526 15.08835538106609,6917.894,95.438,540.653,538.865,0.0
53926.0,STARLINK-5014,PAYLOAD,2024-08-22 05:29:22,15.08837755,0.0001344,53.2167,322.8681,87.4667,272.6479,0.00028342,4.225e-05,0.0,0 STARLINK-5014,1 53926U 22119AS  24235.22873745  .00004225  00000-0  28342-3 0  9999,2 53926  53.2167 322.8681 0001344  87.4667 272.6479 15.08837755106262,6917.887,95.438,540.682,538.822,0.0
